[{"OBJECT_NAME":"SMDC ONE 2.4","OBJECT_ID":"2013-072H","EPOCH":"2026-03-09T13:26:07.283328","MEAN_MOTION":15.15767863,"ECCENTRICITY":0.0137633,"INCLINATION":120.4883,"RA_OF_ASC_NODE":328.0945,"ARG_OF_PERICENTER":267.6479,"MEAN_ANOMALY":90.8828,"EPHEMERIS_TYPE":0,"CLASSIFICATION_TYPE":"U","NORAD_CAT_ID":39469,"ELEMENT_SET_NO":999,"REV_AT_EPOCH":10271,"BSTAR":0.00065974,"MEAN_MOTION_DOT":0.00015821,"MEAN_MOTION_DDOT":0},{"OBJECT_NAME":"STARLINK-33627","OBJECT_ID":"2025-035S","EPOCH":"2026-03-09T06:22:30.527904","MEAN_MOTION":15.2758309,"ECCENTRICITY":9.0e-5,"INCLINATION":42.9957,"RA_OF_ASC_NODE":149.5809,"ARG_OF_PERICENTER":209.9613,"MEAN_ANOMALY":150.1187,"EPHEMERIS_TYPE":0,"CLASSIFICATION_TYPE":"U","NORAD_CAT_ID":63068,"ELEMENT_SET_NO":999,"REV_AT_EPOCH":5965,"BSTAR":0.00084013245,"MEAN_MOTION_DOT":0.00022931,"MEAN_MOTION_DDOT":0}]
